{"type": "FeatureCollection", "features": [ {"type": "Feature", "properties": {"norad_id": 41836, "name": "HIMAWARI-9", "group": "weather", "lat": -0.020743210404215697, "lon": -80.40596218504945, "alt_km": 35781.78189172757, "timestamp": "2025-12-12T03:50:52.059218+00:00", "meta": {"OBJECT_NAME": "HIMAWARI-9", "OBJECT_ID": "2016-064A", "EPOCH": "2025-12-11T07:19:57.783360", "MEAN_MOTION": 1.00270622, "ECCENTRICITY": 0.00011273, "INCLINATION": 0.0322, "RA_OF_ASC_NODE": 90.3935, "ARG_OF_PERICENTER": 181.1554, "MEAN_ANOMALY": 59.4836, "EPHEMERIS_TYPE": 0, "CLASSIFICATION_TYPE": "U", "NORAD_CAT_ID": 41836, "ELEMENT_SET_NO": 999, "REV_AT_EPOCH": 3332, "BSTAR": 0, "MEAN_MOTION_DOT": -2.68e-06, "MEAN_MOTION_DDOT": 0}, "tle": {"line1": "1 41836U 16064A   25345.30552990 -.00000268  00000+0  00000+0 0  9996", "line2": "2 41836   0.0322  90.3935 0001127 181.1554  59.4836  1.00270622 33322"}}, "geometry": {"type": "Point", "coordinates": [-80.40596218504945, -0.020743210404215697]}}, {"type": "Feature", "properties": {"norad_id": 41866, "name": "GOES 16", "group": "weather", "lat": -0.039665817052292524, "lon": 34.18164575370008, "alt_km": 35794.9534363225, "timestamp": "2025-12-12T03:50:52.059231+00:00", "meta": {"OBJECT_NAME": "GOES 16", "OBJECT_ID": "2016-071A", "EPOCH": "2025-12-11T13:00:47.924640", "MEAN_MOTION": 1.0027302, "ECCENTRICITY": 0.00033503, "INCLINATION": 0.0611, "RA_OF_ASC_NODE": 106.3459, "ARG_OF_PERICENTER": 157.3595, "MEAN_ANOMALY": 267.3227, "EPHEMERIS_TYPE": 0, "CLASSIFICATION_TYPE": "U", "NORAD_CAT_ID": 41866, "ELEMENT_SET_NO": 999, "REV_AT_EPOCH": 3322, "BSTAR": 0, "MEAN_MOTION_DOT": -8.4e-07, "MEAN_MOTION_DDOT": 0}, "tle": {"line1": "1 41866U 16071A   25345.54222135 -.00000084  00000+0  00000+0 0  9994", "line2": "2 41866   0.0611 106.3459 0003350 157.3595 267.3227  1.00273020 33223"}}, "geometry": {"type": "Point", "coordinates": [34.18164575370008, -0.039665817052292524]}}, {"type": "Feature", "properties": {"norad_id": 41882, "name": "FENGYUN 4A", "group": "weather", "lat": -0.028131210811891707, "lon": -97.31122955132876, "alt_km": 35769.40377007726, "timestamp": "2025-12-12T03:50:52.059243+00:00", "meta": {"OBJECT_NAME": "FENGYUN 4A", "OBJECT_ID": "2016-077A", "EPOCH": "2025-12-11T14:06:04.173984", "MEAN_MOTION": 1.00270135, "ECCENTRICITY": 0.00049195, "INCLINATION": 1.8465, "RA_OF_ASC_NODE": 82.3913, "ARG_OF_PERICENTER": 146.0912, "MEAN_ANOMALY": 187.417, "EPHEMERIS_TYPE": 0, "CLASSIFICATION_TYPE": "U", "NORAD_CAT_ID": 41882, "ELEMENT_SET_NO": 999, "REV_AT_EPOCH": 3304, "BSTAR": 0, "MEAN_MOTION_DOT": -3.49e-06, "MEAN_MOTION_DDOT": 0}, "tle": {"line1": "1 41882U 16077A   25345.58754831 -.00000349  00000+0  00000+0 0  9999", "line2": "2 41882   1.8465  82.3913 0004919 146.0912 187.4170  1.00270135 33048"}}, "geometry": {"type": "Point", "coordinates": [-97.31122955132876, -0.028131210811891707]}}, {"type": "Feature", "properties": {"norad_id": 41884, "name": "CYGFM05", "group": "weather", "lat": 4.9046671127854005, "lon": 57.970820197838634, "alt_km": 428.586712706453, "timestamp": "2025-12-12T03:50:52.059255+00:00", "meta": {"OBJECT_NAME": "CYGFM05", "OBJECT_ID": "2016-078A", "EPOCH": "2025-12-11T12:19:44.236416", "MEAN_MOTION": 15.47567747, "ECCENTRICITY": 0.00099326, "INCLINATION": 34.9601, "RA_OF_ASC_NODE": 55.1392, "ARG_OF_PERICENTER": 172.194, "MEAN_ANOMALY": 187.8938, "EPHEMERIS_TYPE": 0, "CLASSIFICATION_TYPE": "U", "NORAD_CAT_ID": 41884, "ELEMENT_SET_NO": 999, "REV_AT_EPOCH": 49957, "BSTAR": 0.00058459472, "MEAN_MOTION_DOT": 0.00031157, "MEAN_MOTION_DDOT": 0}, "tle": {"line1": "1 41884U 16078A   25345.51370644  .00031157  00000+0  58459-3 0  9996", "line2": "2 41884  34.9601  55.1392 0009932 172.1940 187.8938 15.47567747499573"}}, "geometry": {"type": "Point", "coordinates": [57.970820197838634, 4.9046671127854005]}}, {"type": "Feature", "properties": {"norad_id": 41885, "name": "CYGFM04", "group": "weather", "lat": -30.490596042852403, "lon": -96.77327595262594, "alt_km": 412.5529441991339, "timestamp": "2025-12-12T03:50:52.059265+00:00", "meta": {"OBJECT_NAME": "CYGFM04", "OBJECT_ID": "2016-078B", "EPOCH": "2025-12-11T11:21:10.464192", "MEAN_MOTION": 15.50277122, "ECCENTRICITY": 0.00092904, "INCLINATION": 34.9354, "RA_OF_ASC_NODE": 30.2184, "ARG_OF_PERICENTER": 199.3234, "MEAN_ANOMALY": 160.7137, "EPHEMERIS_TYPE": 0, "CLASSIFICATION_TYPE": "U", "NORAD_CAT_ID": 41885, "ELEMENT_SET_NO": 999, "REV_AT_EPOCH": 49974, "BSTAR": 0.00063588717, "MEAN_MOTION_DOT": 0.00037316, "MEAN_MOTION_DDOT": 0}, "tle": {"line1": "1 41885U 16078B   25345.47303778  .00037316  00000+0  63589-3 0  9999", "line2": "2 41885  34.9354  30.2184 0009290 199.3234 160.7137 15.50277122499745"}}, "geometry": {"type": "Point", "coordinates": [-96.77327595262594, -30.490596042852403]}}, {"type": "Feature", "properties": {"norad_id": 41886, "name": "CYGFM02", "group": "weather", "lat": -33.11403851941625, "lon": -86.87467492320486, "alt_km": 408.69506571333295, "timestamp": "2025-12-12T03:50:52.059277+00:00", "meta": {"OBJECT_NAME": "CYGFM02", "OBJECT_ID": "2016-078C", "EPOCH": "2025-12-11T11:19:26.384160", "MEAN_MOTION": 15.51650862, "ECCENTRICITY": 0.00109769, "INCLINATION": 34.9444, "RA_OF_ASC_NODE": 28.569, "ARG_OF_PERICENTER": 198.8221, "MEAN_ANOMALY": 161.2096, "EPHEMERIS_TYPE": 0, "CLASSIFICATION_TYPE": "U", "NORAD_CAT_ID": 41886, "ELEMENT_SET_NO": 999, "REV_AT_EPOCH": 49987, "BSTAR": 0.00064646241, "MEAN_MOTION_DOT": 0.00039891, "MEAN_MOTION_DDOT": 0}, "tle": {"line1": "1 41886U 16078C   25345.47183315  .00039891  00000+0  64646-3 0  9998", "line2": "2 41886  34.9444  28.5690 0010976 198.8221 161.2096 15.51650862499872"}}, "geometry": {"type": "Point", "coordinates": [-86.87467492320486, -33.11403851941625]}}, {"type": "Feature", "properties": {"norad_id": 41887, "name": "CYGFM01", "group": "weather", "lat": 26.626113294505473, "lon": 99.15958340979944, "alt_km": 420.0149638028215, "timestamp": "2025-12-12T03:50:52.059288+00:00", "meta": {"OBJECT_NAME": "CYGFM01", "OBJECT_ID": "2016-078D", "EPOCH": "2025-12-11T13:41:51.421056", "MEAN_MOTION": 15.48144651, "ECCENTRICITY": 0.00094971, "INCLINATION": 34.9432, "RA_OF_ASC_NODE": 57.1248, "ARG_OF_PERICENTER": 164.4274, "MEAN_ANOMALY": 195.6741, "EPHEMERIS_TYPE": 0, "CLASSIFICATION_TYPE": "U", "NORAD_CAT_ID": 41887, "ELEMENT_SET_NO": 999, "REV_AT_EPOCH": 49952, "BSTAR": 0.00049978475, "MEAN_MOTION_DOT": 0.00027156, "MEAN_MOTION_DDOT": 0}, "tle": {"line1": "1 41887U 16078D   25345.57073404  .00027156  00000+0  49978-3 0  9999", "line2": "2 41887  34.9432  57.1248 0009497 164.4274 195.6741 15.48144651499520"}}, "geometry": {"type": "Point", "coordinates": [99.15958340979944, 26.626113294505473]}}, {"type": "Feature", "properties": {"norad_id": 41888, "name": "CYGFM08", "group": "weather", "lat": 34.591119998726285, "lon": 135.31573427537558, "alt_km": 412.98938833159536, "timestamp": "2025-12-12T03:50:52.059299+00:00", "meta": {"OBJECT_NAME": "CYGFM08", "OBJECT_ID": "2016-078E", "EPOCH": "2025-12-11T11:57:53.666784", "MEAN_MOTION": 15.49345459, "ECCENTRICITY": 0.00113806, "INCLINATION": 34.9463, "RA_OF_ASC_NODE": 40.6034, "ARG_OF_PERICENTER": 187.8178, "MEAN_ANOMALY": 172.2368, "EPHEMERIS_TYPE": 0, "CLASSIFICATION_TYPE": "U", "NORAD_CAT_ID": 41888, "ELEMENT_SET_NO": 999, "REV_AT_EPOCH": 49974, "BSTAR": 0.00063122143, "MEAN_MOTION_DOT": 0.00035861, "MEAN_MOTION_DDOT": 0}, "tle": {"line1": "1 41888U 16078E   25345.49853781  .00035861  00000+0  63122-3 0  9994", "line2": "2 41888  34.9463  40.6034 0011380 187.8178 172.2368 15.49345459499741"}}, "geometry": {"type": "Point", "coordinates": [135.31573427537558, 34.591119998726285]}}, {"type": "Feature", "properties": {"norad_id": 41890, "name": "CYGFM07", "group": "weather", "lat": 34.707362630502494, "lon": 107.8989625250187, "alt_km": 414.41612518767306, "timestamp": "2025-12-12T03:50:52.059310+00:00", "meta": {"OBJECT_NAME": "CYGFM07", "OBJECT_ID": "2016-078G", "EPOCH": "2025-12-11T12:01:43.381056", "MEAN_MOTION": 15.49925306, "ECCENTRICITY": 0.00097414, "INCLINATION": 34.9484, "RA_OF_ASC_NODE": 29.5736, "ARG_OF_PERICENTER": 205.3606, "MEAN_ANOMALY": 154.6639, "EPHEMERIS_TYPE": 0, "CLASSIFICATION_TYPE": "U", "NORAD_CAT_ID": 41890, "ELEMENT_SET_NO": 999, "REV_AT_EPOCH": 49976, "BSTAR": 0.00063492627, "MEAN_MOTION_DOT": 0.00036799, "MEAN_MOTION_DDOT": 0}, "tle": {"line1": "1 41890U 16078G   25345.50119654  .00036799  00000+0  63493-3 0  9995", "line2": "2 41890  34.9484  29.5736 0009741 205.3606 154.6639 15.49925306499764"}}, "geometry": {"type": "Point", "coordinates": [107.8989625250187, 34.707362630502494]}}, {"type": "Feature", "properties": {"norad_id": 41891, "name": "CYGFM03", "group": "weather", "lat": -34.42468081265934, "lon": -51.80191352391057, "alt_km": 418.10511152392974, "timestamp": "2025-12-12T03:50:52.059327+00:00", "meta": {"OBJECT_NAME": "CYGFM03", "OBJECT_ID": "2016-078H", "EPOCH": "2025-12-11T11:11:26.566080", "MEAN_MOTION": 15.49822944, "ECCENTRICITY": 0.00091164, "INCLINATION": 34.9435, "RA_OF_ASC_NODE": 31.7202, "ARG_OF_PERICENTER": 192.4174, "MEAN_ANOMALY": 167.6324, "EPHEMERIS_TYPE": 0, "CLASSIFICATION_TYPE": "U", "NORAD_CAT_ID": 41891, "ELEMENT_SET_NO": 999, "REV_AT_EPOCH": 49973, "BSTAR": 0.00063877072, "MEAN_MOTION_DOT": 0.0003688, "MEAN_MOTION_DDOT": 0}, "tle": {"line1": "1 41891U 16078H   25345.46627970  .00036880  00000+0  63877-3 0  9993", "line2": "2 41891  34.9435  31.7202 0009116 192.4174 167.6324 15.49822944499732"}}, "geometry": {"type": "Point", "coordinates": [-51.80191352391057, -34.42468081265934]}}]}